     3.03           N                                       RINEX VERSION / TYPE
MergeRinexNaviV1.0  CSNO-TARC           20231226 113104 UTC PGM / RUN BY / DATE
BROADCAST EPH FROM BDS B1I AND B3I SIGNALS                  COMMENT
BDSA   0.3912E-07  0.8196E-07 -0.1133E-05  0.1788E-05 a C46 IONOSPHERIC CORR
BDSB   0.1208E+06  0.1147E+06 -0.1835E+07  0.2163E+07 a C46 IONOSPHERIC CORR
BDSA   0.3912E-07  0.8196E-07 -0.1133E-05  0.1788E-05 b C05 IONOSPHERIC CORR
BDSB   0.1208E+06  0.1147E+06 -0.1769E+07  0.2163E+07 b C05 IONOSPHERIC CORR
BDSA   0.3912E-07  0.8196E-07 -0.1133E-05  0.1788E-05 c C22 IONOSPHERIC CORR
BDSB   0.1208E+06  0.1147E+06 -0.1769E+07  0.2163E+07 c C22 IONOSPHERIC CORR
BDSA   0.4098E-07 -0.1490E-07 -0.6557E-06  0.1073E-05 d C05 IONOSPHERIC CORR
BDSB   0.1249E+06 -0.3277E+05 -0.1049E+07  0.1573E+07 d C05 IONOSPHERIC CORR
BDSA   0.4098E-07 -0.1490E-07 -0.6557E-06  0.1073E-05 e C27 IONOSPHERIC CORR
BDSB   0.1249E+06 -0.3277E+05 -0.1049E+07  0.1573E+07 e C27 IONOSPHERIC CORR
BDSA   0.4098E-07 -0.7451E-08 -0.6557E-06  0.1133E-05 f C05 IONOSPHERIC CORR
BDSB   0.1229E+06  0.1638E+05 -0.1245E+07  0.1769E+07 f C05 IONOSPHERIC CORR
BDSA   0.4005E-07  0.7451E-08 -0.7749E-06  0.1252E-05 g C43 IONOSPHERIC CORR
BDSB   0.1229E+06  0.1638E+05 -0.1245E+07  0.1704E+07 g C43 IONOSPHERIC CORR
BDSA   0.4005E-07  0.7451E-08 -0.7749E-06  0.1252E-05 h C05 IONOSPHERIC CORR
BDSB   0.1229E+06  0.1638E+05 -0.1245E+07  0.1704E+07 h C05 IONOSPHERIC CORR
BDSA   0.4005E-07  0.7451E-08 -0.7749E-06  0.1252E-05 i C06 IONOSPHERIC CORR
BDSB   0.1229E+06  0.1638E+05 -0.1245E+07  0.1704E+07 i C06 IONOSPHERIC CORR
BDSA   0.3912E-07  0.8196E-07 -0.1133E-05  0.1788E-05 j C22 IONOSPHERIC CORR
BDSB   0.1229E+06  0.6554E+05 -0.1507E+07  0.1900E+07 j C22 IONOSPHERIC CORR
BDSA   0.3912E-07  0.8196E-07 -0.1133E-05  0.1788E-05 k C22 IONOSPHERIC CORR
BDSB   0.1229E+06  0.6554E+05 -0.1507E+07  0.1900E+07 k C22 IONOSPHERIC CORR
BDS1   0.2988E+02 -0.5000E+01  0.1000E+02             a C39 IONOSPHERIC CORR
BDS2   0.6875E+01 -0.8875E+01  0.8750E+00             a C39 IONOSPHERIC CORR
BDS3   0.1250E+00  0.2125E+01  0.1250E+00             a C39 IONOSPHERIC CORR
BDS1   0.2988E+02 -0.5000E+01  0.1000E+02             b C21 IONOSPHERIC CORR
BDS2   0.6875E+01 -0.8875E+01  0.8750E+00             b C21 IONOSPHERIC CORR
BDS3   0.1250E+00  0.2125E+01  0.1250E+00             b C21 IONOSPHERIC CORR
BDS1   0.2988E+02 -0.5000E+01  0.1000E+02             c C22 IONOSPHERIC CORR
BDS2   0.6875E+01 -0.8875E+01  0.8750E+00             c C22 IONOSPHERIC CORR
BDS3   0.1250E+00  0.2125E+01  0.1250E+00             c C22 IONOSPHERIC CORR
BDS1   0.2988E+02 -0.5000E+01  0.1000E+02             d C42 IONOSPHERIC CORR
BDS2   0.6750E+01 -0.8875E+01  0.8750E+00             d C42 IONOSPHERIC CORR
BDS3   0.1250E+00  0.2125E+01  0.1250E+00             d C42 IONOSPHERIC CORR
BDS1   0.2988E+02 -0.5000E+01  0.1000E+02             e C27 IONOSPHERIC CORR
BDS2   0.6750E+01 -0.8875E+01  0.8750E+00             e C27 IONOSPHERIC CORR
BDS3   0.1250E+00  0.2125E+01  0.1250E+00             e C27 IONOSPHERIC CORR
BDS1   0.2988E+02 -0.5000E+01  0.1000E+02             f C43 IONOSPHERIC CORR
BDS2   0.6875E+01 -0.8875E+01  0.8750E+00             f C43 IONOSPHERIC CORR
BDS3   0.1250E+00  0.2000E+01  0.1250E+00             f C43 IONOSPHERIC CORR
BDS1   0.3000E+02 -0.5000E+01  0.1038E+02             g C41 IONOSPHERIC CORR
BDS2   0.6875E+01 -0.9125E+01  0.7500E+00             g C41 IONOSPHERIC CORR
BDS3   0.1250E+00  0.2125E+01  0.1250E+00             g C41 IONOSPHERIC CORR
BDS1   0.3000E+02 -0.5000E+01  0.1038E+02             h C40 IONOSPHERIC CORR
BDS2   0.6875E+01 -0.9125E+01  0.7500E+00             h C40 IONOSPHERIC CORR
BDS3   0.1250E+00  0.2125E+01  0.1250E+00             h C40 IONOSPHERIC CORR
BDS1   0.3000E+02 -0.5000E+01  0.1038E+02             i C29 IONOSPHERIC CORR
BDS2   0.6875E+01 -0.9125E+01  0.7500E+00             i C29 IONOSPHERIC CORR
BDS3   0.1250E+00  0.2125E+01  0.1250E+00             i C29 IONOSPHERIC CORR
BDS1   0.3025E+02 -0.5000E+01  0.1050E+02             j C25 IONOSPHERIC CORR
BDS2   0.6875E+01 -0.9125E+01  0.7500E+00             j C25 IONOSPHERIC CORR
BDS3   0.0000E+00  0.2250E+01  0.1250E+00             j C25 IONOSPHERIC CORR
BDS1   0.3025E+02 -0.5000E+01  0.1050E+02             k C29 IONOSPHERIC CORR
BDS2   0.6875E+01 -0.9125E+01  0.7500E+00             k C29 IONOSPHERIC CORR
BDS3   0.0000E+00  0.2250E+01  0.1250E+00             k C29 IONOSPHERIC CORR
                                                            END OF HEADER
C22 2023 12 26 06 00 00-0.172124826349E-03 0.146878065266E-10 0.000000000000E+00
     0.100000000000E+01-0.998593750000E+02 0.318763277770E-08 0.289416802562E+01
    -0.506313517690E-05 0.392791815102E-03 0.105639919639E-04 0.528263786888E+04
     0.194400000000E+06-0.428408384323E-07 0.158312342459E-01-0.149011611938E-07
     0.975870166075E+00 0.153453125000E+03 0.371526043048E+00-0.629490506521E-08
     0.263582407837E-09 0.000000000000E+00 0.938000000000E+03 0.000000000000E+00
     0.200000000000E+01 0.000000000000E+00 0.137000000000E-07 0.137000000000E-07
     0.194400000000E+06 0.100000000000E+01
C23 2023 12 26 06 00 00-0.798371620476E-03 0.530597787929E-11 0.000000000000E+00
     0.100000000000E+01-0.829687500000E+01 0.425089135240E-08-0.258620450770E+01
    -0.331085175276E-06 0.243482645601E-03 0.705104321241E-05 0.528264037323E+04
     0.194400000000E+06 0.000000000000E+00 0.210880185625E+01 0.465661287308E-09
     0.944836085267E+00 0.210781250000E+03 0.708284158513E+00-0.678135389918E-08
    -0.610382567741E-09 0.000000000000E+00 0.938000000000E+03 0.000000000000E+00
     0.200000000000E+01 0.000000000000E+00 0.220000000000E-07 0.220000000000E-07
     0.194400000000E+06 0.100000000000E+01
C24 2023 12 26 06 00 00 0.728595303372E-03 0.363105101542E-10 0.000000000000E+00
     0.100000000000E+01-0.784375000000E+01 0.427517807833E-08-0.115413869485E+01
    -0.365078449249E-06 0.863023684360E-03 0.691693276167E-05 0.528263282967E+04
     0.194400000000E+06 0.144354999065E-07 0.210861909389E+01 0.353902578354E-07
     0.944828794083E+00 0.212437500000E+03 0.837597741514E+00-0.682028409221E-08
    -0.565023535498E-09 0.000000000000E+00 0.938000000000E+03 0.000000000000E+00
     0.200000000000E+01 0.000000000000E+00 0.380000000000E-08 0.380000000000E-08
     0.194400000000E+06 0.100000000000E+01
C25 2023 12 26 06 00 00 0.286822789349E-03 0.890310047907E-11 0.000000000000E+00
     0.100000000000E+01-0.740625000000E+01 0.426803492364E-08-0.190600621119E+01
    -0.356230884790E-06 0.618268735707E-03 0.692810863256E-05 0.528261433220E+04
     0.194400000000E+06 0.260770320892E-07 0.208471951826E+01-0.111758708954E-07
     0.946306876771E+00 0.214921875000E+03 0.780436599197E+00-0.677456790223E-08
    -0.592524681031E-09 0.000000000000E+00 0.938000000000E+03 0.000000000000E+00
     0.200000000000E+01 0.000000000000E+00 0.500000000000E-09 0.500000000000E-09
     0.196170000000E+06 0.100000000000E+01
C26 2023 12 26 06 00 00-0.225569470786E-03-0.538591393706E-11 0.000000000000E+00
     0.100000000000E+01-0.109375000000E+02 0.421160400164E-08-0.275225425752E+00
    -0.496860593557E-06 0.948183122091E-03 0.702543184161E-05 0.528261481476E+04
     0.194400000000E+06-0.465661287308E-08 0.208532076735E+01 0.358559191227E-07
     0.946357041695E+00 0.211484375000E+03 0.716213508047E+00-0.681456956846E-08
    -0.536450916763E-09 0.000000000000E+00 0.938000000000E+03 0.000000000000E+00
     0.200000000000E+01 0.000000000000E+00-0.520000000000E-08-0.520000000000E-08
     0.194400000000E+06 0.100000000000E+01
C27 2023 12 26 06 00 00 0.247569172643E-03 0.539035482916E-11 0.000000000000E+00
     0.100000000000E+01 0.125218750000E+03 0.396337937637E-08 0.318734094292E+00
     0.602658838034E-05 0.484474701807E-03-0.654254108667E-06 0.528262265396E+04
     0.194400000000E+06-0.228174030781E-07-0.207107304976E+01-0.125728547573E-07
     0.960682380254E+00 0.374843750000E+03 0.112115606275E+01-0.720637160287E-08
     0.280011663610E-09 0.000000000000E+00 0.938000000000E+03 0.000000000000E+00
     0.200000000000E+01 0.000000000000E+00-0.450000000000E-08-0.450000000000E-08
     0.196140000000E+06 0.100000000000E+01
C28 2023 12 26 06 00 00 0.187493511476E-03 0.432631708236E-11 0.000000000000E+00
     0.100000000000E+01 0.117656250000E+03 0.396195074544E-08-0.252187983883E+01
     0.580772757530E-05 0.272414763458E-03-0.784639269114E-06 0.528263792038E+04
     0.194400000000E+06-0.162981450558E-07-0.207131032922E+01-0.162981450558E-07
     0.960560618657E+00 0.376703125000E+03-0.160932212227E+01-0.720887170701E-08
     0.273225666660E-09 0.000000000000E+00 0.938000000000E+03 0.000000000000E+00
     0.200000000000E+01 0.000000000000E+00-0.440000000000E-08-0.440000000000E-08
     0.194400000000E+06 0.100000000000E+01
C29 2023 12 26 06 00 00 0.219573616050E-03 0.504574160232E-11 0.000000000000E+00
     0.100000000000E+01 0.122125000000E+03 0.404016828923E-08-0.497788858150E+00
     0.605499371886E-05 0.475103734061E-04 0.596512109041E-06 0.528261742210E+04
     0.194400000000E+06-0.125728547573E-07-0.211081381333E+01 0.153668224812E-07
     0.958789751933E+00 0.349609375000E+03 0.382342753996E+00-0.714958352314E-08
     0.270725562521E-09 0.000000000000E+00 0.938000000000E+03 0.000000000000E+00
     0.200000000000E+01 0.000000000000E+00-0.200000000000E-09-0.200000000000E-09
     0.194400000000E+06 0.100000000000E+01
